#aV2011  9 21  0  0   .00000000      96 DD+AD WGS84 FIT  NGA
## 1654 259200.00000000   900.00000000 55825  .0000000000000
+   32     1  2  3  4  5  6  7  8  9 10 11 12 13 14 15 16 17
+         18 19 20 21 22 23 24 25 26 27 28 29 30 31 32  0  0
+          0  0  0  0  0  0  0  0  0  0  0  0  0  0  0  0  0
+          0  0  0  0  0  0  0  0  0  0  0  0  0  0  0  0  0
+          0  0  0  0  0  0  0  0  0  0  0  0  0  0  0  0  0
++         0  0  0  0  0  0  0  0  0  0  0  0  0  0  0  0  0
++         0  0  0  0  0  0  0  0  0  0  0  0  0  0  0  0  0
++         0  0  0  0  0  0  0  0  0  0  0  0  0  0  0  0  0
++         0  0  0  0  0  0  0  0  0  0  0  0  0  0  0  0  0
++         0  0  0  0  0  0  0  0  0  0  0  0  0  0  0  0  0
%c cc cc ccc ccc cccc cccc cccc cccc ccccc ccccc ccccc ccccc
%c cc cc ccc ccc cccc cccc cccc cccc ccccc ccccc ccccc ccccc
%f  0.0000000  0.000000000  0.00000000000  0.000000000000000
%f  0.0000000  0.000000000  0.00000000000  0.000000000000000
%i    0    0    0    0      0      0      0      0         0
%i    0    0    0    0      0      0      0      0         0
/*      NGA, ST. LOUIS,MO.                                  
/*   EPHEMERIS COMPUTED FROM  3 DAYS OF DATA                
/* CCCCCCCCCCCCCCCCCCCCCCCCCCCCCCCCCCCCCCCCCCCCCCCCCCCCCCCCC
/* CCCCCCCCCCCCCCCCCCCCCCCCCCCCCCCCCCCCCCCCCCCCCCCCCCCCCCCCC
*  2011  9 21 10 15   .00000000                                                 
P  1 -22877.235905 -13491.953914    -19.555995     -3.428073                    
V  1   1447.453621  -2431.174902 -31752.747034      -.016943                    
P  2   7162.122098  18932.343570  17510.814136    357.143759                    
V  2 -19895.116933  -9499.982300  17990.891553       .018516                    
P  3   1495.470299 -18783.059567 -19053.699895    771.145919                    
V  3  19979.511589 -12476.481405  14506.239575       .049785                    
P  4  -9224.295913  12630.074276  21254.495316    237.702889                    
V  4 -23630.600551 -14240.763453  -1436.448538       .112175                    
P  5   2311.438743  26121.925006  -3818.492687   -221.223648                    
V  5  -3195.089910   4806.482212  31156.550907      -.052360                    
P  6   7278.807100 -19087.129307 -16703.823247    -65.763784                    
V  6  19612.856011  -9471.568021  19459.208333       .087341                    
P  7 -22791.136449  -3355.500609 -13417.813211     27.821561                    
V  7 -13527.822218 -10331.875266  25306.131123       .018811                    
P  8 -17532.889862   3101.459147 -19862.378128      9.210231                    
V  8 -19955.602677 -15128.259182  14666.145800       .001074                    
P  9  21024.434418  15690.517724  -4603.412546    106.902400                    
V  9  -5447.174388   -851.742508 -31583.711916       .023276                    
P 10  -9778.685023  20962.477145  12480.869087    -13.837577                    
V 10  -2335.240716 -16479.294625  25776.341629      -.012490                    
P 11 -21502.867496 -13526.921185  -8660.309388   -187.829485                    
V 11  11347.041911  -1152.570383 -27135.759283      -.033622                    
P 12  11971.332954  14932.804035  18497.725943     23.716353                    
V 12  -2008.762433  23311.496589 -17357.854272       .023929                    
P 13 -23957.707224   2721.870631  11099.712470    250.467741                    
V 13  12314.438970  -7323.571090  27950.875031      -.018768                    
P 14  20504.837451 -15187.311927   7258.913055    173.242622                    
V 14   9041.744814  -1960.167306 -30510.657902       .018190                    
P 15  12325.185679  10377.535369 -21130.097745   -105.443417                    
V 15 -22952.313390  13982.110511  -6343.713513       .014980                    
P 16  -2487.351075 -25647.373052  -5738.304164   -198.985769                    
V 16   2855.687078  -7207.967354  31191.944038      -.021897                    
P 17 -19976.186537  15845.162265   7127.751348    174.213701                    
V 17  -9217.389281   1577.450910 -30170.285882      -.017741                    
P 18  15415.660350  -5567.717963 -20501.931732    158.378373                    
V 18    251.818932  27007.697617  -7398.501760       .018589                    
P 19  -8964.223316 -12613.502149 -21639.057438   -186.119995                    
V 19  24939.874796 -11326.175361  -3375.326985      -.040449                    
P 20 -13946.258455 -12997.886133  18374.065164     53.252260                    
V 20   1331.697946 -23741.483667 -15595.729663       .005269                    
P 21  21872.696481    290.099861 -15029.524108   -172.882308                    
V 21  15572.729528  12297.412830  21660.149459      -.025098                    
P 22  11095.112546 -19509.477597 -13936.893628    144.444240                    
V 22   2362.504823  18221.894345 -23436.955034      -.001285                    
P 23 -19329.837300  -3819.054555  18001.888278    274.235635                    
V 23  19327.532115 -11931.719791  17885.643210      -.030841                    
P 24 -21349.930190 -15985.386869  -1755.712747    425.674069                    
V 24   3516.741997  -1158.352626 -31172.508966       .030636                    
P 25  15040.174491   2325.584241  21740.091065     19.738076                    
V 25   -352.584620  27655.853783  -2683.736611       .017738                    
P 26   -405.169414  15983.512145 -21731.073996   -164.402458                    
V 26 -24123.383166  10277.793753   8618.376363      -.127769                    
P 27  18581.242736  16773.745169  -8769.840513    307.446073                    
V 27 -11348.151404  -4080.241732 -29311.871021       .038244                    
P 28 -12105.567223  16396.661750 -16366.850552     69.248108                    
V 28   -513.833013 -21923.921051 -21163.919573       .030709                    
P 29  23820.604290  -3129.620967  11343.856269    241.670087                    
V 29 -11719.774920   8564.167580  27169.823514       .033743                    
P 30  13861.814942  -8593.447452  20605.642067     82.452948                    
V 30   3145.446339  26848.112765   8913.859214      -.052025                    
P 31   5451.266804 -14019.227110  22075.890756    144.486483                    
V 31  23561.218274  14199.422721   3436.093916       .054906                    
P 32  -8261.465400 -20966.126723  14658.012653   -332.463593                    
V 32   3758.614310 -17708.396829 -23208.461458      -.065240                    
EOF
